{
    "links": {
        "self": "http://www.neowsapp.com/rest/v1/neo/3774019?api_key=iIulBulltgU6a56xZRHN4H3l9WmuAYTsLGpBGhQ2"
    },
    "id": "3774019",
    "neo_reference_id": "3774019",
    "name": "(2017 HH1)",
    "designation": "2017 HH1",
    "nasa_jpl_url": "http://ssd.jpl.nasa.gov/sbdb.cgi?sstr=3774019",
    "absolute_magnitude_h": 25.6,
    "estimated_diameter": {
        "kilometers": {
            "estimated_diameter_min": 0.0201629919,
            "estimated_diameter_max": 0.0450858206
        },
        "meters": {
            "estimated_diameter_min": 20.1629919443,
            "estimated_diameter_max": 45.0858206172
        },
        "miles": {
            "estimated_diameter_min": 0.0125286985,
            "estimated_diameter_max": 0.0280150214
        },
        "feet": {
            "estimated_diameter_min": 66.1515504905,
            "estimated_diameter_max": 147.9193637137
        }
    },
    "is_potentially_hazardous_asteroid": false,
    "close_approach_data": [
        {
            "close_approach_date": "2017-04-23",
            "close_approach_date_full": "2017-Apr-23 14:55",
            "epoch_date_close_approach": 1492959300000,
            "relative_velocity": {
                "kilometers_per_second": "18.1844799408",
                "kilometers_per_hour": "65464.127786781",
                "miles_per_hour": "40676.863179514"
            },
            "miss_distance": {
                "astronomical": "0.0155812259",
                "lunar": "6.0610968751",
                "kilometers": "2330918.206628833",
                "miles": "1448365.4120025754"
            },
            "orbiting_body": "Earth"
        },
        {
            "close_approach_date": "2017-06-29",
            "close_approach_date_full": "2017-Jun-29 02:46",
            "epoch_date_close_approach": 1498704360000,
            "relative_velocity": {
                "kilometers_per_second": "16.5538599049",
                "kilometers_per_hour": "59593.895657662",
                "miles_per_hour": "37029.3292212845"
            },
            "miss_distance": {
                "astronomical": "0.1246136299",
                "lunar": "48.4747020311",
                "kilometers": "18641933.606008313",
                "miles": "11583560.4059401994"
            },
            "orbiting_body": "Venus"
        }
    ],
    "orbital_data": {
        "orbit_id": "5",
        "orbit_determination_date": "2017-04-29 06:18:53",
        "first_observation_date": "2017-04-19",
        "last_observation_date": "2017-04-23",
        "data_arc_in_days": 4,
        "observations_used": 48,
        "orbit_uncertainty": "8",
        "minimum_orbit_intersection": ".00421576",
        "jupiter_tisserand_invariant": "3.596",
        "epoch_osculation": "2457864.5",
        "eccentricity": ".6481262991386487",
        "semi_major_axis": "1.950515528009219",
        "inclination": "5.543368964852477",
        "ascending_node_longitude": "209.9673677837717",
        "orbital_period": "994.9987725109472",
        "perihelion_distance": ".6863351174281366",
        "perihelion_argument": "81.40500937779117",
        "aphelion_distance": "3.214695938590301",
        "perihelion_time": "2457913.917943057214",
        "mean_anomaly": "342.1201191477838",
        "mean_motion": ".3618094915750654",
        "equinox": "J2000",
        "orbit_class": {
            "orbit_class_type": "APO",
            "orbit_class_description": "Near-Earth asteroid orbits which cross the Earth’s orbit similar to that of 1862 Apollo",
            "orbit_class_range": "a (semi-major axis) > 1.0 AU; q (perihelion) < 1.017 AU"
        }
    },
    "is_sentry_object": false
}